NORAD_CAT_ID,OBJECT_NAME,OBJECT_TYPE,EPOCH,MEAN_MOTION,ECCENTRICITY,INCLINATION,RA_OF_ASC_NODE,ARG_OF_PERICENTER,MEAN_ANOMALY,BSTAR,MEAN_MOTION_DOT,MEAN_MOTION_DDOT,TLE_LINE0,TLE_LINE1,TLE_LINE2,SEMIMAJOR_AXIS,PERIOD,APOGEE,PERIGEE,DECAYED
54761.0,STARLINK-5202,PAYLOAD,2023-08-31 08:13:08,15.08845369,0.0001511,53.2166,220.4375,90.986,269.1306,0.00010421,1.371e-05,0.0,0 STARLINK-5202,1 54761U 22175D   23243.34245413  .00001371  00000-0  10421-3 0  9993,2 54761  53.2166 220.4375 0001511  90.9860 269.1306 15.08845369 38660,6917.864,95.437,540.774,538.684,0.0
54761.0,STARLINK-5202,PAYLOAD,2023-09-01 09:39:18,15.0884357,0.0001477,53.2162,215.6804,90.4692,269.6469,7.7665e-05,9.48e-06,0.0,0 STARLINK-5202,1 54761U 22175D   23244.40229640  .00000948  00000-0  77665-4 0  9998,2 54761  53.2162 215.6804 0001477  90.4692 269.6469 15.08843570 38823,6917.869,95.437,540.756,538.713,0.0
54761.0,STARLINK-5202,PAYLOAD,2023-09-02 06:19:19,15.08852007,0.0001522,53.2159,211.8151,94.1519,265.9647,-8.8406e-05,-1.695e-05,0.0,0 STARLINK-5202,1 54761U 22175D   23245.26341549 -.00001695  00000-0 -88406-4 0  9993,2 54761  53.2159 211.8151 0001522  94.1519 265.9647 15.08852007 41110,6917.844,95.437,540.762,538.656,0.0
54761.0,STARLINK-5202,PAYLOAD,2023-09-02 14:16:14,15.08854859,0.0001476,53.216,210.3285,93.1415,266.9746,-0.00022591,-3.883e-05,0.0,0 STARLINK-5202,1 54761U 22175D   23245.59461461 -.00003883  00000-0 -22591-3 0  9998,2 54761  53.2160 210.3285 0001476  93.1415 266.9746 15.08854859 39009,6917.835,95.437,540.721,538.679,0.0
54761.0,STARLINK-5202,PAYLOAD,2023-09-02 20:37:47,15.08842067,0.0001412,53.2198,209.1361,90.1721,269.9433,9.0417e-05,1.151e-05,0.0,0 STARLINK-5202,1 54761U 22175D   23245.85957620  .00001151  00000-0  90417-4 0  9991,2 54761  53.2198 209.1361 0001412  90.1721 269.9433 15.08842067 41207,6917.874,95.437,540.716,538.762,0.0
54761.0,STARLINK-5202,PAYLOAD,2023-09-03 01:23:56,15.08851361,0.0001331,53.215,208.2477,94.0512,266.0632,0.0001531,2.15e-05,0.0,0 STARLINK-5202,1 54761U 22175D   23246.05828732  .00002150  00000-0  15310-3 0  9993,2 54761  53.2150 208.2477 0001331  94.0512 266.0632 15.08851361 39072,6917.846,95.437,540.631,538.79,0.0
54761.0,STARLINK-5202,PAYLOAD,2023-09-04 07:36:17,15.08822688,0.0001351,53.218,202.5966,83.7175,276.3971,-6.1028e-05,-1.259e-05,0.0,0 STARLINK-5202,1 54761U 22175D   23247.31687341 -.00001259  00000-0 -61028-4 0  9991,2 54761  53.2180 202.5966 0001351  83.7175 276.3971 15.08822688 39268,6917.933,95.439,540.733,538.864,0.0
54761.0,STARLINK-5202,PAYLOAD,2023-09-04 13:57:50,15.08829079,0.0001167,53.2179,201.4075,80.5136,279.5988,-3.6607e-05,-8.7e-06,0.0,0 STARLINK-5202,1 54761U 22175D   23247.58183076 -.00000870  00000-0 -36607-4 0  9999,2 54761  53.2179 201.4075 0001167  80.5136 279.5988 15.08829079 39301,6917.914,95.438,540.586,538.971,0.0
54761.0,STARLINK-5202,PAYLOAD,2023-09-05 05:51:40,15.08845868,0.0001167,53.2172,198.4331,76.8168,283.2955,-5.1904e-05,-1.114e-05,0.0,0 STARLINK-5202,1 54761U 22175D   23248.24422248 -.00001114  00000-0 -51904-4 0  9999,2 54761  53.2172 198.4331 0001167  76.8168 283.2955 15.08845868 39408,6917.862,95.437,540.535,538.92,0.0
54761.0,STARLINK-5202,PAYLOAD,2023-09-06 02:31:42,15.08830629,0.0001267,53.2172,194.5676,73.808,286.3051,0.00028759,4.291e-05,0.0,0 STARLINK-5202,1 54761U 22175D   23249.10535016  .00004291  00000-0  28759-3 0  9991,2 54761  53.2172 194.5676 0001267  73.8080 286.3051 15.08830629 39532,6917.909,95.438,540.651,538.898,0.0
54761.0,STARLINK-5202,PAYLOAD,2023-09-06 07:17:51,15.08846169,0.0001265,53.2163,193.6751,73.069,287.0441,0.00037342,5.661e-05,0.0,0 STARLINK-5202,1 54761U 22175D   23249.30406418  .00005661  00000-0  37342-3 0  9996,2 54761  53.2163 193.6751 0001265  73.0690 287.0441 15.08846169 39563,6917.862,95.437,540.602,538.851,0.0
54761.0,STARLINK-5202,PAYLOAD,2023-09-07 02:22:28,15.08845811,0.0001349,53.2164,190.1066,78.1617,281.9526,0.00017222,2.454e-05,0.0,0 STARLINK-5202,1 54761U 22175D   23250.09894419  .00002454  00000-0  17222-3 0  9998,2 54761  53.2164 190.1066 0001349  78.1617 281.9526 15.08845811 39686,6917.863,95.437,540.661,538.794,0.0
54761.0,STARLINK-5202,PAYLOAD,2023-09-07 05:33:14,15.08846757,0.000122,53.2165,189.5122,77.9133,282.1996,9.966e-05,1.299e-05,0.0,0 STARLINK-5202,1 54761U 22175D   23250.23142279  .00001299  00000-0  99660-4 0  9997,2 54761  53.2165 189.5122 0001220  77.9133 282.1996 15.08846757 41867,6917.86,95.437,540.569,538.881,0.0
54761.0,STARLINK-5202,PAYLOAD,2023-09-08 02:13:15,15.08838441,0.000118,53.2156,185.6459,100.911,259.2015,0.0001002,1.307e-05,0.0,0 STARLINK-5202,1 54761U 22175D   23251.09254612  .00001307  00000-0  10020-3 0  9999,2 54761  53.2156 185.6459 0001180 100.9110 259.2015 15.08838441 39836,6917.885,95.438,540.566,538.934,0.0
54761.0,STARLINK-5202,PAYLOAD,2023-09-08 19:42:30,15.088415,0.000126,53.2146,182.3759,96.7753,263.3383,0.00014132,1.962e-05,0.0,0 STARLINK-5202,1 54761U 22175D   23251.82118599  .00001962  00000-0  14132-3 0  9998,2 54761  53.2146 182.3759 0001260  96.7753 263.3383 15.08841500 42104,6917.876,95.437,540.612,538.869,0.0
54761.0,STARLINK-5202,PAYLOAD,2023-09-09 02:04:02,15.08855667,0.0001311,53.2157,181.1865,103.3598,256.754,-7.4533e-05,-1.474e-05,0.0,0 STARLINK-5202,1 54761U 22175D   23252.08613905 -.00001474  00000-0 -74533-4 0  9990,2 54761  53.2157 181.1865 0001311 103.3598 256.7540 15.08855667 39982,6917.833,95.437,540.604,538.791,0.0
54761.0,STARLINK-5202,PAYLOAD,2023-09-09 05:14:48,15.08849277,0.0001268,53.2156,180.5913,101.6378,258.4757,0.00015439,2.171e-05,0.0,0 STARLINK-5202,1 54761U 22175D   23252.21862166  .00002171  00000-0  15439-3 0  9992,2 54761  53.2156 180.5913 0001268 101.6378 258.4757 15.08849277 42169,6917.852,95.437,540.594,538.84,0.0
54761.0,STARLINK-5202,PAYLOAD,2023-09-10 01:54:50,15.08830315,0.0001277,53.2159,176.7264,103.9264,256.187,-3.3919e-05,-8.27e-06,0.0,0 STARLINK-5202,1 54761U 22175D   23253.07975339 -.00000827  00000-0 -33919-4 0  9996,2 54761  53.2159 176.7264 0001277 103.9264 256.1870 15.08830315 40136,6917.91,95.438,540.658,538.892,0.0
54761.0,STARLINK-5202,PAYLOAD,2023-09-10 05:05:36,15.08844847,0.0001246,53.216,176.1313,106.3814,253.7315,0.00017062,2.429e-05,0.0,0 STARLINK-5202,1 54761U 22175D   23253.21222583  .00002429  00000-0  17062-3 0  9996,2 54761  53.2160 176.1313 0001246 106.3814 253.7315 15.08844847 40155,6917.866,95.437,540.593,538.869,0.0
54761.0,STARLINK-5202,PAYLOAD,2023-09-10 19:24:05,15.08834313,0.0001402,53.2161,173.4539,106.3613,253.7534,-4.7277e-05,-1.04e-05,0.0,0 STARLINK-5202,1 54761U 22175D   23253.80839282 -.00001040  00000-0 -47277-4 0  9993,2 54761  53.2161 173.4539 0001402 106.3613 253.7534 15.08834313 40247,6917.898,95.438,540.733,538.793,0.0
54761.0,STARLINK-5202,PAYLOAD,2023-09-11 11:17:56,15.08841175,0.0001198,53.2169,170.4826,98.4946,261.6182,7.0643e-05,8.37e-06,0.0,0 STARLINK-5202,1 54761U 22175D   23254.47079225  .00000837  00000-0  70643-4 0  9994,2 54761  53.2169 170.4826 0001198  98.4946 261.6182 15.08841175 42505,6917.877,95.437,540.571,538.913,0.0
54761.0,STARLINK-5202,PAYLOAD,2023-09-12 01:36:24,15.08844837,0.0001236,53.2167,167.8062,101.3402,258.7729,0.0002363,3.475e-05,0.0,0 STARLINK-5202,1 54761U 22175D   23255.06695300  .00003475  00000-0  23630-3 0  9992,2 54761  53.2167 167.8062 0001236 101.3402 258.7729 15.08844837 40431,6917.866,95.437,540.586,538.876,0.0
54761.0,STARLINK-5202,PAYLOAD,2023-09-12 04:47:10,15.08847114,0.000127,53.2168,167.21,91.2521,268.8616,0.00030224,4.526e-05,0.0,0 STARLINK-5202,1 54761U 22175D   23255.19943194  .00004526  00000-0  30224-3 0  9998,2 54761  53.2168 167.2100 0001270  91.2521 268.8616 15.08847114 42616,6917.859,95.437,540.602,538.845,0.0
54761.0,STARLINK-5202,PAYLOAD,2023-09-13 03:02:34,15.08855403,0.0001224,53.2165,163.0461,85.8467,274.2665,0.00048236,7.4e-05,0.0,0 STARLINK-5202,1 54761U 22175D   23256.12678952  .00007400  00000-0  48236-3 0  9995,2 54761  53.2165 163.0461 0001224  85.8467 274.2665 15.08855403 40594,6917.833,95.437,540.545,538.852,0.0
54761.0,STARLINK-5202,PAYLOAD,2023-09-13 22:07:12,15.08834527,0.0001805,53.2165,159.4786,135.5889,224.5248,-8.4199e-05,-1.628e-05,0.0,0 STARLINK-5202,1 54761U 22175D   23256.92167576 -.00001628  00000-0 -84199-4 0  9995,2 54761  53.2165 159.4786 0001805 135.5889 224.5248 15.08834527 42871,6917.897,95.438,541.011,538.513,0.0
54761.0,STARLINK-5202,PAYLOAD,2023-09-14 02:53:22,15.08833953,0.0001206,53.2175,158.5866,91.6235,268.4895,6.261e-05,7.09e-06,0.0,0 STARLINK-5202,1 54761U 22175D   23257.12040081  .00000709  00000-0  62610-4 0  9990,2 54761  53.2175 158.5866 0001206  91.6235 268.4895 15.08833953 40744,6917.899,95.438,540.598,538.93,0.0
54761.0,STARLINK-5202,PAYLOAD,2023-09-14 17:11:50,15.08840069,0.00011,53.2172,155.9106,104.7841,255.3273,0.00025156,3.718e-05,0.0,0 STARLINK-5202,1 54761U 22175D   23257.71656150  .00003718  00000-0  25156-3 0  9991,2 54761  53.2172 155.9106 0001100 104.7841 255.3273 15.08840069 42991,6917.88,95.438,540.506,538.984,0.0
54761.0,STARLINK-5202,PAYLOAD,2023-09-15 02:44:09,15.08857747,9.89e-05,53.2164,154.1282,92.0839,268.0266,0.00086177,0.0001346,0.0,0 STARLINK-5202,1 54761U 22175D   23258.11399772  .00013460  00000-0  86177-3 0  9995,2 54761  53.2164 154.1282 0000989  92.0839 268.0266 15.08857747 40899,6917.826,95.436,540.375,539.007,0.0
54761.0,STARLINK-5202,PAYLOAD,2023-09-15 23:24:09,15.08852132,0.0001042,53.2168,150.2617,87.9336,272.1775,0.00034608,5.226e-05,0.0,0 STARLINK-5202,1 54761U 22175D   23258.97511545  .00005226  00000-0  34608-3 0  9996,2 54761  53.2168 150.2617 0001042  87.9336 272.1775 15.08852132 41028,6917.843,95.437,540.429,538.987,0.0
54761.0,STARLINK-5202,PAYLOAD,2023-09-16 16:53:24,15.08843839,0.0001211,53.2165,146.9914,91.7369,268.3762,1.881e-05,1.2e-07,0.0,0 STARLINK-5202,1 54761U 22175D   23259.70375518  .00000012  00000-0  18810-4 0  9992,2 54761  53.2165 146.9914 0001211  91.7369 268.3762 15.08843839 41133,6917.869,95.437,540.571,538.896,0.0
